[
    {
        "Altitude(m)": 555411.1270704974,
        "Argument of Periapsis(deg)": 0.013245982221427002,
        "Eccentricity": 0.0,
        "Inclination(deg)": 53.0,
        "Latitude(deg)": 32.13767819981169,
        "Longitude(deg)": -129.66309856917667,
        "Mean Anomaly(deg)": 138.36508573515513,
        "RAAN(deg)": 179.98028673705602,
        "Satellite Name": "Starlink Shell 1 799",
        "Satellite Number": 799,
        "Semi-Major Axis(m)": 6931778.249405717,
        "Time(s)": 380
    },
    {
        "Altitude(m)": 555333.9461550179,
        "Argument of Periapsis(deg)": 0.013594560700938237,
        "Eccentricity": 0.0,
        "Inclination(deg)": 53.0,
        "Latitude(deg)": 31.693087272983796,
        "Longitude(deg)": -129.18249807352214,
        "Mean Anomaly(deg)": 138.9919169387119,
        "RAAN(deg)": 179.97976796697859,
        "Satellite Name": "Starlink Shell 1 799",
        "Satellite Number": 799,
        "Semi-Major Axis(m)": 6931778.249405717,
        "Time(s)": 390
    },
    {
        "Altitude(m)": 555257.6221465556,
        "Argument of Periapsis(deg)": 0.013943139180449475,
        "Eccentricity": 0.0,
        "Inclination(deg)": 53.0,
        "Latitude(deg)": 31.246350030541826,
        "Longitude(deg)": -128.70685780651178,
        "Mean Anomaly(deg)": 139.6187481422686,
        "RAAN(deg)": 179.97924919690107,
        "Satellite Name": "Starlink Shell 1 799",
        "Satellite Number": 799,
        "Semi-Major Axis(m)": 6931778.249405717,
        "Time(s)": 400
    },
    {
        "Altitude(m)": 555182.209699455,
        "Argument of Periapsis(deg)": 0.014291717659960712,
        "Eccentricity": 0.0,
        "Inclination(deg)": 53.0,
        "Latitude(deg)": 30.79752260284185,
        "Longitude(deg)": -128.236068071775,
        "Mean Anomaly(deg)": 140.24557934582532,
        "RAAN(deg)": 179.97873042682363,
        "Satellite Name": "Starlink Shell 1 799",
        "Satellite Number": 799,
        "Semi-Major Axis(m)": 6931778.249405717,
        "Time(s)": 410
    },
    {
        "Altitude(m)": 555107.7632064669,
        "Argument of Periapsis(deg)": 0.014640296139471948,
        "Eccentricity": 0.0,
        "Inclination(deg)": 53.0,
        "Latitude(deg)": 30.346659863089315,
        "Longitude(deg)": -127.7700209131845,
        "Mean Anomaly(deg)": 140.87241054938204,
        "RAAN(deg)": 179.97821165674614,
        "Satellite Name": "Starlink Shell 1 799",
        "Satellite Number": 799,
        "Semi-Major Axis(m)": 6931778.249405717,
        "Time(s)": 420
    },
    {
        "Altitude(m)": 555034.3367701841,
        "Argument of Periapsis(deg)": 0.014988874618983185,
        "Eccentricity": 0.0,
        "Inclination(deg)": 53.0,
        "Latitude(deg)": 29.893815459769822,
        "Longitude(deg)": -127.30860963553413,
        "Mean Anomaly(deg)": 141.49924175293873,
        "RAAN(deg)": 179.97769288666865,
        "Satellite Name": "Starlink Shell 1 799",
        "Satellite Number": 799,
        "Semi-Major Axis(m)": 6931778.249405717,
        "Time(s)": 430
    },
    {
        "Altitude(m)": 554961.9841745831,
        "Argument of Periapsis(deg)": 0.015337453098494424,
        "Eccentricity": 0.0,
        "Inclination(deg)": 53.0,
        "Latitude(deg)": 29.439041848805033,
        "Longitude(deg)": -126.85172832051413,
        "Mean Anomaly(deg)": 142.12607295649553,
        "RAAN(deg)": 179.9771741165912,
        "Satellite Name": "Starlink Shell 1 799",
        "Satellite Number": 799,
        "Semi-Major Axis(m)": 6931778.249405717,
        "Time(s)": 440
    },
    {
        "Altitude(m)": 554890.7588566726,
        "Argument of Periapsis(deg)": 0.01568603157800566,
        "Eccentricity": 0.0,
        "Inclination(deg)": 53.0,
        "Latitude(deg)": 28.982390325393805,
        "Longitude(deg)": -126.39927285119899,
        "Mean Anomaly(deg)": 142.7529041600522,
        "RAAN(deg)": 179.97665534651375,
        "Satellite Name": "Starlink Shell 1 799",
        "Satellite Number": 799,
        "Semi-Major Axis(m)": 6931778.249405717,
        "Time(s)": 450
    },
    {
        "Altitude(m)": 554820.7138782804,
        "Argument of Periapsis(deg)": 0.0160346100575169,
        "Eccentricity": 0.0,
        "Inclination(deg)": 53.0,
        "Latitude(deg)": 28.523911055493286,
        "Longitude(deg)": -125.95114041962441,
        "Mean Anomaly(deg)": 143.37973536360894,
        "RAAN(deg)": 179.97613657643623,
        "Satellite Name": "Starlink Shell 1 799",
        "Satellite Number": 799,
        "Semi-Major Axis(m)": 6931778.249405717,
        "Time(s)": 460
    },
    {
        "Altitude(m)": 554751.9018979728,
        "Argument of Periapsis(deg)": 0.016383188537028134,
        "Eccentricity": 0.0,
        "Inclination(deg)": 53.0,
        "Latitude(deg)": 28.0636531069112,
        "Longitude(deg)": -125.50722903063283,
        "Mean Anomaly(deg)": 144.0065665671656,
        "RAAN(deg)": 179.97561780635877,
        "Satellite Name": "Starlink Shell 1 799",
        "Satellite Number": 799,
        "Semi-Major Axis(m)": 6931778.249405717,
        "Time(s)": 470
    },
    {
        "Altitude(m)": 554684.3751431304,
        "Argument of Periapsis(deg)": 0.01673176701653937,
        "Eccentricity": 0.0,
        "Inclination(deg)": 53.0,
        "Latitude(deg)": 27.601664479979057,
        "Longitude(deg)": -125.0674385151445,
        "Mean Anomaly(deg)": 144.63339777072233,
        "RAAN(deg)": 179.9750990362813,
        "Satellite Name": "Starlink Shell 1 799",
        "Satellite Number": 799,
        "Semi-Major Axis(m)": 6931778.249405717,
        "Time(s)": 480
    },
    {
        "Altitude(m)": 554618.1853822066,
        "Argument of Periapsis(deg)": 0.017080345496050607,
        "Eccentricity": 0.0,
        "Inclination(deg)": 53.0,
        "Latitude(deg)": 27.137992137780373,
        "Longitude(deg)": -124.63167002738216,
        "Mean Anomaly(deg)": 145.26022897427907,
        "RAAN(deg)": 179.97458026620382,
        "Satellite Name": "Starlink Shell 1 799",
        "Satellite Number": 799,
        "Semi-Major Axis(m)": 6931778.249405717,
        "Time(s)": 490
    },
    {
        "Altitude(m)": 554553.3838971461,
        "Argument of Periapsis(deg)": 0.017428923975561842,
        "Eccentricity": 0.0,
        "Inclination(deg)": 53.0,
        "Latitude(deg)": 26.67268203591206,
        "Longitude(deg)": -124.19982553917333,
        "Mean Anomaly(deg)": 145.88706017783574,
        "RAAN(deg)": 179.97406149612635,
        "Satellite Name": "Starlink Shell 1 799",
        "Satellite Number": 799,
        "Semi-Major Axis(m)": 6931778.249405717,
        "Time(s)": 500
    },
    {
        "Altitude(m)": 554490.0214560425,
        "Argument of Periapsis(deg)": 0.01777750245507308,
        "Eccentricity": 0.0,
        "Inclination(deg)": 53.0,
        "Latitude(deg)": 26.205779151764478,
        "Longitude(deg)": -123.77180884444154,
        "Mean Anomaly(deg)": 146.5138913813925,
        "RAAN(deg)": 179.9735427260489,
        "Satellite Name": "Starlink Shell 1 799",
        "Satellite Number": 799,
        "Semi-Major Axis(m)": 6931778.249405717,
        "Time(s)": 510
    },
    {
        "Altitude(m)": 554428.1482859649,
        "Argument of Periapsis(deg)": 0.018126080934584315,
        "Eccentricity": 0.0,
        "Inclination(deg)": 53.0,
        "Latitude(deg)": 25.73732751330231,
        "Longitude(deg)": -123.3475250483656,
        "Mean Anomaly(deg)": 147.14072258494915,
        "RAAN(deg)": 179.9730239559714,
        "Satellite Name": "Starlink Shell 1 799",
        "Satellite Number": 799,
        "Semi-Major Axis(m)": 6931778.249405717,
        "Time(s)": 520
    },
    {
        "Altitude(m)": 554367.8140460406,
        "Argument of Periapsis(deg)": 0.018474659414095554,
        "Eccentricity": 0.0,
        "Inclination(deg)": 53.0,
        "Latitude(deg)": 25.267370227334837,
        "Longitude(deg)": -122.92688005428658,
        "Mean Anomaly(deg)": 147.76755378850595,
        "RAAN(deg)": 179.97250518589394,
        "Satellite Name": "Starlink Shell 1 799",
        "Satellite Number": 799,
        "Semi-Major Axis(m)": 6931778.249405717,
        "Time(s)": 530
    },
    {
        "Altitude(m)": 554309.067800781,
        "Argument of Periapsis(deg)": 0.018823237893606792,
        "Eccentricity": 0.0,
        "Inclination(deg)": 53.0,
        "Latitude(deg)": 24.795949507271043,
        "Longitude(deg)": -122.50978156143142,
        "Mean Anomaly(deg)": 148.39438499206264,
        "RAAN(deg)": 179.97198641581647,
        "Satellite Name": "Starlink Shell 1 799",
        "Satellite Number": 799,
        "Semi-Major Axis(m)": 6931778.249405717,
        "Time(s)": 540
    },
    {
        "Altitude(m)": 554251.9579936381,
        "Argument of Periapsis(deg)": 0.019171816373118027,
        "Eccentricity": 0.0,
        "Inclination(deg)": 53.0,
        "Latitude(deg)": 24.323106700346983,
        "Longitude(deg)": -122.09613854788941,
        "Mean Anomaly(deg)": 149.02121619561936,
        "RAAN(deg)": 179.97146764573898,
        "Satellite Name": "Starlink Shell 1 799",
        "Satellite Number": 799,
        "Semi-Major Axis(m)": 6931778.249405717,
        "Time(s)": 550
    },
    {
        "Altitude(m)": 554196.5324208607,
        "Argument of Periapsis(deg)": 0.019520394852629266,
        "Eccentricity": 0.0,
        "Inclination(deg)": 53.0,
        "Latitude(deg)": 23.84888231432471,
        "Longitude(deg)": -121.68586075188396,
        "Mean Anomaly(deg)": 149.64804739917605,
        "RAAN(deg)": 179.97094887566152,
        "Satellite Name": "Starlink Shell 1 799",
        "Satellite Number": 799,
        "Semi-Major Axis(m)": 6931778.249405717,
        "Time(s)": 560
    }
]